0 SHIYUAN 4
1 37931U 11068B   13282.20160640  .00000071  00000-0  44314-4 0  1174
2 37931 098.4468 284.9246 0015035 051.0474 309.2046 14.29610815 98462
0 SHIYUAN 4
1 37931U 11068B   13282.48156284  .00000073  00000-0  44993-4 0  1189
2 37931 098.4468 285.1962 0015038 050.3738 309.8770 14.29610913 98502
0 SHIYUAN 4
1 37931U 11068B   13282.83150848  .00000077  00000-0  46585-4 0  1192
2 37931 098.4468 285.5358 0015016 049.3801 310.8686 14.29610998 98556
0 SHIYUAN 4
1 37931U 11068B   13283.18145397  .00000077  00000-0  46415-4 0  1208
2 37931 098.4468 285.8751 0015001 048.3715 311.8752 14.29611092 98600
0 SHIYUAN 4
1 37931U 11068B   13283.32143215  .00000077  00000-0  46553-4 0  1215
2 37931 098.4469 286.0111 0015020 047.9771 312.2686 14.29611130 98628
0 SHIYUAN 4
1 37931U 11068B   13283.67137765  .00000078  00000-0  47017-4 0  1213
2 37931 098.4469 286.3504 0015007 046.9997 313.2438 14.29611211 98672
0 SHIYUAN 4
1 37931U 11068B   13283.81135590  .00000077  00000-0  46485-4 0  1221
2 37931 098.4469 286.4862 0014998 046.6594 313.5833 14.29611218 98699
0 SHIYUAN 4
1 37931U 11068B   13284.16130155  .00000068  00000-0  43035-4 0  1231
2 37931 098.4469 286.8256 0015014 045.6306 314.6101 14.29611204 98741
0 SHIYUAN 4
1 37931U 11068B   13284.51124712  .00000060  00000-0  39806-4 0  1246
2 37931 098.4468 287.1649 0014977 044.7017 315.5371 14.29611201 98797
0 SHIYUAN 4
1 37931U 11068B   13285.49109455  .00000049  00000-0  35664-4 0  1279
2 37931 098.4471 288.1155 0014979 041.9180 318.3147 14.29611280 98931
0 SHIYUAN 4
1 37931U 11068B   13285.84103994  .00000050  00000-0  36046-4 0  1288
2 37931 098.4472 288.4550 0014954 040.8885 319.3413 14.29611333 98988
0 SHIYUAN 4
1 37931U 11068B   13286.19098521  .00000053  00000-0  37396-4 0  1299
2 37931 098.4472 288.7945 0014959 039.8367 320.3911 14.29611473 99034
0 SHIYUAN 4
1 37931U 11068B   13286.47094141  .00000055  00000-0  38136-4 0  1301
2 37931 098.4470 289.0660 0014933 039.0965 321.1296 14.29611571 99076
0 SHIYUAN 4
1 37931U 11068B   13286.82088677  .00000062  00000-0  40798-4 0  1313
2 37931 098.4472 289.4054 0014930 038.0770 322.1467 14.29611680 99127
0 SHIYUAN 4
1 37931U 11068B   13287.17083186  .00000061  00000-0  40465-4 0  1323
2 37931 098.4472 289.7448 0014915 037.0555 323.1651 14.29611770 99171
0 SHIYUAN 4
1 37931U 11068B   13287.52077716  .00000061  00000-0  40518-4 0  1334
2 37931 098.4471 290.0841 0014894 036.1509 324.0681 14.29611860 99226
0 SHIYUAN 4
1 37931U 11068B   13287.87072243  .00000069  00000-0  43563-4 0  1344
2 37931 098.4475 290.4237 0014892 035.1214 325.0949 14.29611978 99276
0 SHIYUAN 4
1 37931U 11068B   13288.15067855  .00000064  00000-0  41563-4 0  1353
2 37931 098.4475 290.6953 0014892 034.3357 325.8780 14.29611986 99317
0 SHIYUAN 4
1 37931U 11068B   13288.50062382  .00000068  00000-0  43122-4 0  1360
2 37931 098.4475 291.0347 0014885 033.4365 326.7761 14.29612127 99362
0 SHIYUAN 4
1 37931U 11068B   13288.85056893  .00000066  00000-0  42376-4 0  1377
2 37931 098.4475 291.3741 0014880 032.3660 327.8430 14.29612165 99417
0 SHIYUAN 4
1 37931U 11068B   13289.20051404  .00000070  00000-0  43879-4 0  1385
2 37931 098.4474 291.7135 0014883 031.3115 328.8955 14.29612311 99465
0 SHIYUAN 4
1 37931U 11068B   13289.48046989  .00000078  00000-0  46978-4 0  1399
2 37931 098.4476 291.9854 0014872 030.6755 329.5296 14.29612481 99506
0 SHIYUAN 4
1 37931U 11068B   13289.83041511  .00000078  00000-0  47125-4 0  1401
2 37931 098.4474 292.3247 0014840 029.7882 330.4146 14.29612534 99559
0 SHIYUAN 4
1 37931U 11068B   13290.18035994  .00000081  00000-0  48205-4 0  1414
2 37931 098.4474 292.6642 0014824 028.7570 331.4427 14.29612668 99603
0 SHIYUAN 4
1 37931U 11068B   13290.32033795  .00000085  00000-0  49882-4 0  1424
2 37931 098.4475 292.8001 0014820 028.4000 331.7994 14.29612764 99627
0 SHIYUAN 4
1 37931U 11068B   13290.67028275  .00000088  00000-0  50781-4 0  1433
2 37931 098.4475 293.1397 0014819 027.4784 332.7177 14.29612873 99675
0 SHIYUAN 4
1 37931U 11068B   13290.81026079  .00000091  00000-0  52165-4 0  1442
2 37931 098.4477 293.2757 0014799 027.1577 333.0380 14.29612944 99693
0 SHIYUAN 4
1 37931U 11068B   13291.16020568  .00000086  00000-0  50125-4 0  1457
2 37931 098.4475 293.6148 0014788 026.1054 334.0871 14.29612991 99740
0 SHIYUAN 4
1 37931U 11068B   13291.51015056  .00000087  00000-0  50475-4 0  1462
2 37931 098.4475 293.9543 0014759 025.2215 334.9689 14.29613112 99796
0 SHIYUAN 4
1 37931U 11068B   13291.86009545  .00000097  00000-0  54522-4 0  1475
2 37931 098.4477 294.2938 0014763 024.1278 336.0600 14.29613286 99846
0 SHIYUAN 4
1 37931U 11068B   13292.14005118  .00000097  00000-0  54392-4 0  1485
2 37931 098.4477 294.5653 0014755 023.3005 336.8848 14.29613386 99880
0 SHIYUAN 4
1 37931U 11068B   13292.48999583  .00000104  00000-0  57147-4 0  1491
2 37931 098.4476 294.9048 0014739 022.4177 337.7654 14.29613587 99937
0 SHIYUAN 4
1 37931U 11068B   13292.83994052  .00000109  00000-0  59019-4 0  1503
2 37931 098.4477 295.2443 0014717 021.4207 338.7593 14.29613723 99980
0 SHIYUAN 4
1 37931U 11068B   13293.18988488  .00000116  00000-0  61988-4 0  1515
2 37931 098.4476 295.5837 0014695 020.3396 339.8373 14.29613954100034
0 SHIYUAN 4
1 37931U 11068B   13293.46984041  .00000124  00000-0  64958-4 0  1527
2 37931 098.4476 295.8554 0014666 019.7011 340.4739 14.29614141100074
0 SHIYUAN 4
1 37931U 11068B   13293.81978513  .00000124  00000-0  64788-4 0  1535
2 37931 098.4475 296.1947 0014650 018.7202 341.4517 14.29614218100123
0 SHIYUAN 4
1 37931U 11068B   13294.16972957  .00000127  00000-0  66120-4 0  1546
2 37931 098.4475 296.5341 0014614 017.6867 342.4823 14.29614390100177
0 SHIYUAN 4
1 37931U 11068B   13294.51967410  .00000126  00000-0  65550-4 0  1559
2 37931 098.4475 296.8735 0014577 016.7966 343.3700 14.29614500100228
0 SHIYUAN 4
1 37931U 11068B   13294.86961870  .00000127  00000-0  66311-4 0  1569
2 37931 098.4476 297.2130 0014540 015.8311 344.3327 14.29614604100273
0 SHIYUAN 4
1 37931U 11068B   13295.14957416  .00000125  00000-0  65213-4 0  1571
2 37931 098.4475 297.4846 0014523 015.0526 345.1081 14.29614672100315
0 SHIYUAN 4
1 37931U 11068B   13295.49951876  .00000118  00000-0  62800-4 0  1585
2 37931 098.4475 297.8240 0014493 014.1047 346.0535 14.29614718100361
0 SHIYUAN 4
1 37931U 11068B   13295.84946349  .00000110  00000-0  59433-4 0  1594
2 37931 098.4474 298.1633 0014442 013.1717 346.9837 14.29614692100418
0 SHIYUAN 4
1 37931U 11068B   13296.19940780  .00000116  00000-0  61811-4 0  1607
2 37931 098.4475 298.5029 0014446 012.1300 348.0228 14.29614895100460
